[{"OBJECT_NAME":"SCS-01 D","OBJECT_ID":"2025-100D","EPOCH":"2026-03-09T18:08:45.040704","MEAN_MOTION":15.31902149,"ECCENTRICITY":0.00063457,"INCLINATION":97.373,"RA_OF_ASC_NODE":145.4097,"ARG_OF_PERICENTER":266.2302,"MEAN_ANOMALY":93.8214,"EPHEMERIS_TYPE":0,"CLASSIFICATION_TYPE":"U","NORAD_CAT_ID":63985,"ELEMENT_SET_NO":999,"REV_AT_EPOCH":4562,"BSTAR":0.0010528181,"MEAN_MOTION_DOT":0.00032471,"MEAN_MOTION_DDOT":0},{"OBJECT_NAME":"STARLINK-34160","OBJECT_ID":"2025-110Z","EPOCH":"2026-03-09T03:33:57.655872","MEAN_MOTION":15.30196666,"ECCENTRICITY":0.00012179,"INCLINATION":53.1618,"RA_OF_ASC_NODE":28.9858,"ARG_OF_PERICENTER":65.2368,"MEAN_ANOMALY":294.8759,"EPHEMERIS_TYPE":0,"CLASSIFICATION_TYPE":"U","NORAD_CAT_ID":64119,"ELEMENT_SET_NO":999,"REV_AT_EPOCH":4580,"BSTAR":0.00092403372,"MEAN_MOTION_DOT":0.00027105,"MEAN_MOTION_DDOT":0}]
